KUIPER-00191            
1 67143U 25301L   26015.48530463  .00019136  00000+0  54659-3 0  9990
2 67143  51.8681 322.4064 0006574 193.9998 166.0807 15.36011705  5588
KUIPER-00196            
1 67144U 25301M   26015.01427585  .00025298  00000+0  70399-3 0  9995
2 67144  51.8739 324.5116 0003002 161.7829 198.3266 15.36663385  5486
KUIPER-00204            
1 67145U 25301N   26015.50002314 -.00027641  00000+0 -11119-2 0  9999
2 67145  51.8830 322.6999 0004572 126.7041 111.2928 15.24113605  5668
KUIPER-00210            
1 67146U 25301P   26015.43985354  .00020581  00000+0  60721-3 0  9994
2 67146  51.8611 322.8308 0010390 219.9156 140.1066 15.34914372  5710
KUIPER-00221            
1 67147U 25301Q   26015.50002314 -.00009718  00000+0 -29613-3 0  9995
2 67147  51.8727 322.3141 0004803 160.8092 299.2995 15.32241892  5045
KUIPER-00232            
1 67148U 25301R   26015.45667822  .00031778  00000+0  86848-3 0  9993
2 67148  51.8737 322.2281 0003002 101.2674 258.8650 15.37102231  5559
KUIPER-00241            
1 67149U 25301S   26015.07489465  .00018871  00000+0  52443-3 0  9990
2 67149  51.8747 324.1678 0003123 151.5777 208.5381 15.36892421  5827
KUIPER-00245            
1 67150U 25301T   26015.50002314 -.00022540  00000+0 -99828-3 0  9992
2 67150  51.8800 322.8192 0008441 190.3245 344.1922 15.20727994  5041
KUIPER-00246            
1 67151U 25301U   26015.01530014  .00019161  00000+0  53686-3 0  9997
2 67151  51.8746 324.5184 0004067 166.8367 193.2726 15.36623850  5503
KUIPER-00247            
1 67152U 25301V   26015.11879353  .00014346  00000+0  43164-3 0  9991
2 67152  51.8663 324.4361 0011173 218.9416 141.0765 15.34563054  5497
KUIPER-00248            
1 67153U 25301W   26015.42991570 -.00005285  00000+0 -14041-3 0  9998
2 67153  51.8696 322.7846 0007131 206.2196 153.8430 15.35374229  5717
KUIPER-00249            
1 67154U 25301X   26015.23030385  .00022198  00000+0  63679-3 0  9997
2 67154  51.8669 323.6928 0008393 202.0376 158.0250 15.35764715  5512
