CCSDS_OMM_VERS = 2.0
CREATION_DATE  = 
ORIGINATOR     = 

OBJECT_NAME    = KUIPER-00191
OBJECT_ID      = 2025-301L
CENTER_NAME    = EARTH
REF_FRAME      = TEME
TIME_SYSTEM    = UTC
MEAN_ELEMENT_THEORY = SGP/SGP4

EPOCH          = 2026-01-15T11:38:50.320032
MEAN_MOTION    = 15.36011705
ECCENTRICITY   = .0006574
INCLINATION    = 51.8681
RA_OF_ASC_NODE = 322.4064
ARG_OF_PERICENTER = 193.9998
MEAN_ANOMALY   = 166.0807

EPHEMERIS_TYPE = 0
CLASSIFICATION_TYPE = U
NORAD_CAT_ID   = 67143
ELEMENT_SET_NO = 999
REV_AT_EPOCH   = 558
BSTAR          = .54659E-3
MEAN_MOTION_DOT = .19136E-3
MEAN_MOTION_DDOT = 0

CCSDS_OMM_VERS = 2.0
CREATION_DATE  = 
ORIGINATOR     = 

OBJECT_NAME    = KUIPER-00196
OBJECT_ID      = 2025-301M
CENTER_NAME    = EARTH
REF_FRAME      = TEME
TIME_SYSTEM    = UTC
MEAN_ELEMENT_THEORY = SGP/SGP4

EPOCH          = 2026-01-15T00:20:33.433440
MEAN_MOTION    = 15.36663385
ECCENTRICITY   = .0003002
INCLINATION    = 51.8739
RA_OF_ASC_NODE = 324.5116
ARG_OF_PERICENTER = 161.7829
MEAN_ANOMALY   = 198.3266

EPHEMERIS_TYPE = 0
CLASSIFICATION_TYPE = U
NORAD_CAT_ID   = 67144
ELEMENT_SET_NO = 999
REV_AT_EPOCH   = 548
BSTAR          = .70399E-3
MEAN_MOTION_DOT = .25298E-3
MEAN_MOTION_DDOT = 0

CCSDS_OMM_VERS = 2.0
CREATION_DATE  = 
ORIGINATOR     = 

OBJECT_NAME    = KUIPER-00204
OBJECT_ID      = 2025-301N
CENTER_NAME    = EARTH
REF_FRAME      = TEME
TIME_SYSTEM    = UTC
MEAN_ELEMENT_THEORY = SGP/SGP4

EPOCH          = 2026-01-15T12:00:01.999296
MEAN_MOTION    = 15.24113605
ECCENTRICITY   = .0004572
INCLINATION    = 51.8830
RA_OF_ASC_NODE = 322.6999
ARG_OF_PERICENTER = 126.7041
MEAN_ANOMALY   = 111.2928

EPHEMERIS_TYPE = 0
CLASSIFICATION_TYPE = U
NORAD_CAT_ID   = 67145
ELEMENT_SET_NO = 999
REV_AT_EPOCH   = 566
BSTAR          = -.11119E-2
MEAN_MOTION_DOT = -.27641E-3
MEAN_MOTION_DDOT = 0

CCSDS_OMM_VERS = 2.0
CREATION_DATE  = 
ORIGINATOR     = 

OBJECT_NAME    = KUIPER-00210
OBJECT_ID      = 2025-301P
CENTER_NAME    = EARTH
REF_FRAME      = TEME
TIME_SYSTEM    = UTC
MEAN_ELEMENT_THEORY = SGP/SGP4

EPOCH          = 2026-01-15T10:33:23.345856
MEAN_MOTION    = 15.34914372
ECCENTRICITY   = .001039
INCLINATION    = 51.8611
RA_OF_ASC_NODE = 322.8308
ARG_OF_PERICENTER = 219.9156
MEAN_ANOMALY   = 140.1066

EPHEMERIS_TYPE = 0
CLASSIFICATION_TYPE = U
NORAD_CAT_ID   = 67146
ELEMENT_SET_NO = 999
REV_AT_EPOCH   = 571
BSTAR          = .60721E-3
MEAN_MOTION_DOT = .20581E-3
MEAN_MOTION_DDOT = 0

CCSDS_OMM_VERS = 2.0
CREATION_DATE  = 
ORIGINATOR     = 

OBJECT_NAME    = KUIPER-00221
OBJECT_ID      = 2025-301Q
CENTER_NAME    = EARTH
REF_FRAME      = TEME
TIME_SYSTEM    = UTC
MEAN_ELEMENT_THEORY = SGP/SGP4

EPOCH          = 2026-01-15T12:00:01.999296
MEAN_MOTION    = 15.32241892
ECCENTRICITY   = .0004803
INCLINATION    = 51.8727
RA_OF_ASC_NODE = 322.3141
ARG_OF_PERICENTER = 160.8092
MEAN_ANOMALY   = 299.2995

EPHEMERIS_TYPE = 0
CLASSIFICATION_TYPE = U
NORAD_CAT_ID   = 67147
ELEMENT_SET_NO = 999
REV_AT_EPOCH   = 504
BSTAR          = -.29613E-3
MEAN_MOTION_DOT = -.9718E-4
MEAN_MOTION_DDOT = 0

CCSDS_OMM_VERS = 2.0
CREATION_DATE  = 
ORIGINATOR     = 

OBJECT_NAME    = KUIPER-00232
OBJECT_ID      = 2025-301R
CENTER_NAME    = EARTH
REF_FRAME      = TEME
TIME_SYSTEM    = UTC
MEAN_ELEMENT_THEORY = SGP/SGP4

EPOCH          = 2026-01-15T10:57:36.998208
MEAN_MOTION    = 15.37102231
ECCENTRICITY   = .0003002
INCLINATION    = 51.8737
RA_OF_ASC_NODE = 322.2281
ARG_OF_PERICENTER = 101.2674
MEAN_ANOMALY   = 258.8650

EPHEMERIS_TYPE = 0
CLASSIFICATION_TYPE = U
NORAD_CAT_ID   = 67148
ELEMENT_SET_NO = 999
REV_AT_EPOCH   = 555
BSTAR          = .86848E-3
MEAN_MOTION_DOT = .31778E-3
MEAN_MOTION_DDOT = 0

CCSDS_OMM_VERS = 2.0
CREATION_DATE  = 
ORIGINATOR     = 

OBJECT_NAME    = KUIPER-00241
OBJECT_ID      = 2025-301S
CENTER_NAME    = EARTH
REF_FRAME      = TEME
TIME_SYSTEM    = UTC
MEAN_ELEMENT_THEORY = SGP/SGP4

EPOCH          = 2026-01-15T01:47:50.897760
MEAN_MOTION    = 15.36892421
ECCENTRICITY   = .0003123
INCLINATION    = 51.8747
RA_OF_ASC_NODE = 324.1678
ARG_OF_PERICENTER = 151.5777
MEAN_ANOMALY   = 208.5381

EPHEMERIS_TYPE = 0
CLASSIFICATION_TYPE = U
NORAD_CAT_ID   = 67149
ELEMENT_SET_NO = 999
REV_AT_EPOCH   = 582
BSTAR          = .52443E-3
MEAN_MOTION_DOT = .18871E-3
MEAN_MOTION_DDOT = 0

CCSDS_OMM_VERS = 2.0
CREATION_DATE  = 
ORIGINATOR     = 

OBJECT_NAME    = KUIPER-00245
OBJECT_ID      = 2025-301T
CENTER_NAME    = EARTH
REF_FRAME      = TEME
TIME_SYSTEM    = UTC
MEAN_ELEMENT_THEORY = SGP/SGP4

EPOCH          = 2026-01-15T12:00:01.999296
MEAN_MOTION    = 15.20727994
ECCENTRICITY   = .0008441
INCLINATION    = 51.8800
RA_OF_ASC_NODE = 322.8192
ARG_OF_PERICENTER = 190.3245
MEAN_ANOMALY   = 344.1922

EPHEMERIS_TYPE = 0
CLASSIFICATION_TYPE = U
NORAD_CAT_ID   = 67150
ELEMENT_SET_NO = 999
REV_AT_EPOCH   = 504
BSTAR          = -.99828E-3
MEAN_MOTION_DOT = -.2254E-3
MEAN_MOTION_DDOT = 0

CCSDS_OMM_VERS = 2.0
CREATION_DATE  = 
ORIGINATOR     = 

OBJECT_NAME    = KUIPER-00246
OBJECT_ID      = 2025-301U
CENTER_NAME    = EARTH
REF_FRAME      = TEME
TIME_SYSTEM    = UTC
MEAN_ELEMENT_THEORY = SGP/SGP4

EPOCH          = 2026-01-15T00:22:01.932096
MEAN_MOTION    = 15.36623850
ECCENTRICITY   = .0004067
INCLINATION    = 51.8746
RA_OF_ASC_NODE = 324.5184
ARG_OF_PERICENTER = 166.8367
MEAN_ANOMALY   = 193.2726

EPHEMERIS_TYPE = 0
CLASSIFICATION_TYPE = U
NORAD_CAT_ID   = 67151
ELEMENT_SET_NO = 999
REV_AT_EPOCH   = 550
BSTAR          = .53686E-3
MEAN_MOTION_DOT = .19161E-3
MEAN_MOTION_DDOT = 0

CCSDS_OMM_VERS = 2.0
CREATION_DATE  = 
ORIGINATOR     = 

OBJECT_NAME    = KUIPER-00247
OBJECT_ID      = 2025-301V
CENTER_NAME    = EARTH
REF_FRAME      = TEME
TIME_SYSTEM    = UTC
MEAN_ELEMENT_THEORY = SGP/SGP4

EPOCH          = 2026-01-15T02:51:03.760992
MEAN_MOTION    = 15.34563054
ECCENTRICITY   = .0011173
INCLINATION    = 51.8663
RA_OF_ASC_NODE = 324.4361
ARG_OF_PERICENTER = 218.9416
MEAN_ANOMALY   = 141.0765

EPHEMERIS_TYPE = 0
CLASSIFICATION_TYPE = U
NORAD_CAT_ID   = 67152
ELEMENT_SET_NO = 999
REV_AT_EPOCH   = 549
BSTAR          = .43164E-3
MEAN_MOTION_DOT = .14346E-3
MEAN_MOTION_DDOT = 0

CCSDS_OMM_VERS = 2.0
CREATION_DATE  = 
ORIGINATOR     = 

OBJECT_NAME    = KUIPER-00248
OBJECT_ID      = 2025-301W
CENTER_NAME    = EARTH
REF_FRAME      = TEME
TIME_SYSTEM    = UTC
MEAN_ELEMENT_THEORY = SGP/SGP4

EPOCH          = 2026-01-15T10:19:04.716480
MEAN_MOTION    = 15.35374229
ECCENTRICITY   = .0007131
INCLINATION    = 51.8696
RA_OF_ASC_NODE = 322.7846
ARG_OF_PERICENTER = 206.2196
MEAN_ANOMALY   = 153.8430

EPHEMERIS_TYPE = 0
CLASSIFICATION_TYPE = U
NORAD_CAT_ID   = 67153
ELEMENT_SET_NO = 999
REV_AT_EPOCH   = 571
BSTAR          = -.14041E-3
MEAN_MOTION_DOT = -.5285E-4
MEAN_MOTION_DDOT = 0

CCSDS_OMM_VERS = 2.0
CREATION_DATE  = 
ORIGINATOR     = 

OBJECT_NAME    = KUIPER-00249
OBJECT_ID      = 2025-301X
CENTER_NAME    = EARTH
REF_FRAME      = TEME
TIME_SYSTEM    = UTC
MEAN_ELEMENT_THEORY = SGP/SGP4

EPOCH          = 2026-01-15T05:31:38.252640
MEAN_MOTION    = 15.35764715
ECCENTRICITY   = .0008393
INCLINATION    = 51.8669
RA_OF_ASC_NODE = 323.6928
ARG_OF_PERICENTER = 202.0376
MEAN_ANOMALY   = 158.0250

EPHEMERIS_TYPE = 0
CLASSIFICATION_TYPE = U
NORAD_CAT_ID   = 67154
ELEMENT_SET_NO = 999
REV_AT_EPOCH   = 551
BSTAR          = .63679E-3
MEAN_MOTION_DOT = .22198E-3
MEAN_MOTION_DDOT = 0

